VIGORIDE-3              
1 52760U 22057AE  26068.92149362  .00008532  00000+0  33326-3 0  9991
2 52760  97.6431 206.4459 0009778 111.2279 249.0004 15.26101220210019
STARLINK-32775          
1 62742U 25014H   26068.26855067  .00025782  00000+0  94346-3 0  9996
2 62742  42.9992 156.7088 0001735 279.0872  80.9783 15.27569146 63194
