[{"OBJECT_NAME":"VIGORIDE-3","OBJECT_ID":"2022-057AE","EPOCH":"2026-03-09T22:06:57.048768","MEAN_MOTION":15.2610122,"ECCENTRICITY":0.00097778,"INCLINATION":97.6431,"RA_OF_ASC_NODE":206.4459,"ARG_OF_PERICENTER":111.2279,"MEAN_ANOMALY":249.0004,"EPHEMERIS_TYPE":0,"CLASSIFICATION_TYPE":"U","NORAD_CAT_ID":52760,"ELEMENT_SET_NO":999,"REV_AT_EPOCH":21001,"BSTAR":0.00033325795,"MEAN_MOTION_DOT":8.532e-5,"MEAN_MOTION_DDOT":0},{"OBJECT_NAME":"STARLINK-32775","OBJECT_ID":"2025-014H","EPOCH":"2026-03-09T06:26:42.777888","MEAN_MOTION":15.27569146,"ECCENTRICITY":0.00017354,"INCLINATION":42.9992,"RA_OF_ASC_NODE":156.7088,"ARG_OF_PERICENTER":279.0872,"MEAN_ANOMALY":80.9783,"EPHEMERIS_TYPE":0,"CLASSIFICATION_TYPE":"U","NORAD_CAT_ID":62742,"ELEMENT_SET_NO":999,"REV_AT_EPOCH":6319,"BSTAR":0.00094345853,"MEAN_MOTION_DOT":0.00025782,"MEAN_MOTION_DDOT":0}]
